NORAD_CAT_ID,OBJECT_NAME,OBJECT_TYPE,EPOCH,MEAN_MOTION,ECCENTRICITY,INCLINATION,RA_OF_ASC_NODE,ARG_OF_PERICENTER,MEAN_ANOMALY,BSTAR,MEAN_MOTION_DOT,MEAN_MOTION_DDOT,TLE_LINE0,TLE_LINE1,TLE_LINE2,SEMIMAJOR_AXIS,PERIOD,APOGEE,PERIGEE,DECAYED
50186.0,STARLINK-3274,PAYLOAD,2023-03-27 08:45:32,15.08848195,9.45e-05,53.2163,59.9064,107.4731,252.6364,0.0013842,0.00021815,0.0,0 STARLINK-3274,1 50186U 21125AG  23086.36496226  .00021815  00000-0  13842-2 0  9995,2 50186  53.2163  59.9064 0000945 107.4731 252.6364 15.08848195 73665,6917.855,95.437,540.374,539.067,0.0
50186.0,STARLINK-3274,PAYLOAD,2023-03-28 07:00:56,15.08851131,9.79e-05,53.2153,55.7426,108.1695,251.9404,0.00052532,8.085e-05,0.0,0 STARLINK-3274,1 50186U 21125AG  23087.29232076  .00008085  00000-0  52532-3 0  9993,2 50186  53.2153  55.7426 0000979 108.1695 251.9404 15.08851131 73328,6917.846,95.437,540.389,539.034,0.0
50186.0,STARLINK-3274,PAYLOAD,2023-03-28 14:57:52,15.08842679,0.000132,53.2161,54.2563,88.0869,272.0274,0.00038468,5.84e-05,0.0,0 STARLINK-3274,1 50186U 21125AG  23087.62352415  .00005840  00000-0  38468-3 0  9998,2 50186  53.2161  54.2563 0001320  88.0869 272.0274 15.08842679 73374,6917.872,95.437,540.65,538.824,0.0
50186.0,STARLINK-3274,PAYLOAD,2023-03-29 06:51:43,15.08858015,0.0001331,53.2158,51.2825,87.9296,272.1849,0.00049463,7.597e-05,0.0,0 STARLINK-3274,1 50186U 21125AG  23088.28591759  .00007597  00000-0  49463-3 0  9995,2 50186  53.2158  51.2825 0001331  87.9296 272.1849 15.08858015 73956,6917.825,95.436,540.611,538.77,0.0
50186.0,STARLINK-3274,PAYLOAD,2023-03-30 03:31:44,15.08840979,0.0001329,53.2165,47.4194,83.0776,277.0368,0.00010144,1.327e-05,0.0,0 STARLINK-3274,1 50186U 21125AG  23089.14704426  .00001327  00000-0  10144-3 0  9997,2 50186  53.2165  47.4194 0001329  83.0776 277.0368 15.08840979 73609,6917.877,95.437,540.662,538.823,0.0
50186.0,STARLINK-3274,PAYLOAD,2023-03-31 06:33:17,15.0884613,0.000143,53.2164,42.3592,127.8142,232.2979,0.00033703,5.081e-05,0.0,0 STARLINK-3274,1 50186U 21125AG  23090.27312353  .00005081  00000-0  33703-3 0  9994,2 50186  53.2164  42.3592 0001430 127.8142 232.2979 15.08846130 73775,6917.862,95.437,540.716,538.737,0.0
50186.0,STARLINK-3274,PAYLOAD,2023-04-01 06:24:05,15.08840338,0.0001254,53.217,37.8982,119.5681,240.5437,0.00015485,2.177e-05,0.0,0 STARLINK-3274,1 50186U 21125AG  23091.26672867  .00002177  00000-0  15485-3 0  9993,2 50186  53.2170  37.8982 0001254 119.5681 240.5437 15.08840338 73926,6917.879,95.438,540.612,538.877,0.0
50186.0,STARLINK-3274,PAYLOAD,2023-04-02 06:14:52,15.08846565,0.0001035,53.2169,33.4398,106.9818,253.1288,0.000242,3.566e-05,0.0,0 STARLINK-3274,1 50186U 21125AG  23092.26032984  .00003566  00000-0  24200-3 0  9992,2 50186  53.2169  33.4398 0001035 106.9818 253.1288 15.08846565 74558,6917.86,95.437,540.441,539.009,0.0
50186.0,STARLINK-3274,PAYLOAD,2023-04-02 20:33:20,15.08838745,0.000107,53.2178,30.7625,105.3935,254.7175,6.9882e-05,8.25e-06,0.0,0 STARLINK-3274,1 50186U 21125AG  23092.85649275  .00000825  00000-0  69882-4 0  9995,2 50186  53.2178  30.7625 0001070 105.3935 254.7175 15.08838745 74163,6917.884,95.438,540.489,539.009,0.0
50186.0,STARLINK-3274,PAYLOAD,2023-04-03 04:30:16,15.08843686,0.000111,53.2179,29.2758,102.2969,257.8148,0.00015677,2.208e-05,0.0,0 STARLINK-3274,1 50186U 21125AG  23093.18769144  .00002208  00000-0  15677-3 0  9999,2 50186  53.2179  29.2758 0001110 102.2969 257.8148 15.08843686 74694,6917.869,95.437,540.502,538.966,0.0
50186.0,STARLINK-3274,PAYLOAD,2023-04-04 04:21:03,15.08852189,0.0001075,53.2171,24.8182,93.1375,266.974,0.0001576,2.222e-05,0.0,0 STARLINK-3274,1 50186U 21125AG  23094.18128660  .00002222  00000-0  15760-3 0  9991,2 50186  53.2171  24.8182 0001075  93.1375 266.9740 15.08852189 74368,6917.843,95.437,540.452,538.964,0.0
50186.0,STARLINK-3274,PAYLOAD,2023-04-05 05:47:13,15.08847227,0.0001152,53.2173,20.0613,89.3304,270.782,0.00013763,1.904e-05,0.0,0 STARLINK-3274,1 50186U 21125AG  23095.24112881  .00001904  00000-0  13763-3 0  9994,2 50186  53.2173  20.0613 0001152  89.3304 270.7820 15.08847227 74529,6917.858,95.437,540.52,538.926,0.0
50186.0,STARLINK-3274,PAYLOAD,2023-04-06 04:02:37,15.08845777,0.0001187,53.2168,15.8964,96.7861,263.3266,3.4873e-05,2.67e-06,0.0,0 STARLINK-3274,1 50186U 21125AG  23096.16848873  .00000267  00000-0  34873-4 0  9990,2 50186  53.2168  15.8964 0001187  96.7861 263.3266 15.08845777 74667,6917.863,95.437,540.549,538.907,0.0
50186.0,STARLINK-3274,PAYLOAD,2023-04-06 18:21:06,15.08837239,0.0001125,53.2174,13.2206,96.2348,263.8772,-1.0745e-05,-4.59e-06,0.0,0 STARLINK-3274,1 50186U 21125AG  23096.76465401 -.00000459  00000-0 -10745-4 0  9995,2 50186  53.2174  13.2206 0001125  96.2348 263.8772 15.08837239 74753,6917.889,95.438,540.532,538.976,0.0
50186.0,STARLINK-3274,PAYLOAD,2023-04-07 03:53:24,15.08846495,0.0001062,53.217,11.4364,98.2918,261.8195,0.00012596,1.718e-05,0.0,0 STARLINK-3274,1 50186U 21125AG  23097.16209113  .00001718  00000-0  12596-3 0  9998,2 50186  53.2170  11.4364 0001062  98.2918 261.8195 15.08846495 74817,6917.861,95.437,540.46,538.991,0.0
50186.0,STARLINK-3274,PAYLOAD,2023-04-08 03:44:11,15.08854208,0.0001173,53.2176,6.9749,100.8354,259.277,0.00023767,3.498e-05,0.0,0 STARLINK-3274,1 50186U 21125AG  23098.15568741  .00003498  00000-0  23767-3 0  9992,2 50186  53.2176   6.9749 0001173 100.8354 259.2770 15.08854208 75447,6917.837,95.437,540.513,538.89,0.0
50186.0,STARLINK-3274,PAYLOAD,2023-04-08 18:02:40,15.08842117,0.0001555,53.2165,4.2995,87.8102,272.3068,5.3282e-05,5.6e-06,0.0,0 STARLINK-3274,1 50186U 21125AG  23098.75185478  .00000560  00000-0  53282-4 0  9993,2 50186  53.2165   4.2995 0001555  87.8102 272.3068 15.08842117 75057,6917.874,95.437,540.815,538.663,0.0
50186.0,STARLINK-3274,PAYLOAD,2023-04-09 03:34:58,15.08844374,0.0001155,53.2172,2.5158,83.6403,276.4721,9.6709e-05,1.252e-05,0.0,0 STARLINK-3274,1 50186U 21125AG  23099.14929363  .00001252  00000-0  96709-4 0  9996,2 50186  53.2172   2.5158 0001155  83.6403 276.4721 15.08844374 75598,6917.867,95.437,540.531,538.933,0.0
50186.0,STARLINK-3274,PAYLOAD,2023-04-09 17:53:27,15.08838601,0.0001149,53.2177,359.8396,86.0653,274.047,-6.3997e-05,-1.306e-05,0.0,0 STARLINK-3274,1 50186U 21125AG  23099.74545720 -.00001306  00000-0 -63997-4 0  9998,2 50186  53.2177 359.8396 0001149  86.0653 274.0470 15.08838601 75201,6917.885,95.438,540.545,538.955,0.0
50186.0,STARLINK-3274,PAYLOAD,2023-04-10 01:50:22,15.08848838,0.0001189,53.2166,358.3526,93.8324,266.2804,0.00010847,1.439e-05,0.0,0 STARLINK-3274,1 50186U 21125AG  23100.07665069  .00001439  00000-0  10847-3 0  9996,2 50186  53.2166 358.3526 0001189  93.8324 266.2804 15.08848838 75255,6917.853,95.437,540.541,538.896,0.0
50186.0,STARLINK-3274,PAYLOAD,2023-04-10 17:44:14,15.08840568,0.0001217,53.2172,355.3805,93.204,266.9091,0.0001545,2.172e-05,0.0,0 STARLINK-3274,1 50186U 21125AG  23100.73905703  .00002172  00000-0  15450-3 0  9991,2 50186  53.2172 355.3805 0001217  93.2040 266.9091 15.08840568 75358,6917.879,95.438,540.586,538.902,0.0
50186.0,STARLINK-3274,PAYLOAD,2023-04-11 01:41:09,15.0884813,0.0001165,53.2179,353.8922,86.1307,273.9818,0.00021763,3.178e-05,0.0,0 STARLINK-3274,1 50186U 21125AG  23101.07025282  .00003178  00000-0  21763-3 0  9995,2 50186  53.2179 353.8922 0001165  86.1307 273.9818 15.08848130 75883,6917.856,95.437,540.526,538.915,0.0
50186.0,STARLINK-3274,PAYLOAD,2023-04-12 01:31:57,15.08836559,0.0001407,53.2175,349.4317,85.2111,274.9042,2.6814e-06,-2.45e-06,0.0,0 STARLINK-3274,1 50186U 21125AG  23102.06386280 -.00000245  00000-0  26814-5 0  9990,2 50186  53.2175 349.4317 0001407  85.2111 274.9042 15.08836559 76030,6917.891,95.438,540.729,538.783,0.0
50186.0,STARLINK-3274,PAYLOAD,2023-04-13 02:58:07,15.08849511,0.000151,53.2168,344.6738,95.9611,264.1553,0.00032617,4.908e-05,0.0,0 STARLINK-3274,1 50186U 21125AG  23103.12370059  .00004908  00000-0  32617-3 0  9990,2 50186  53.2168 344.6738 0001510  95.9611 264.1553 15.08849511 76191,6917.851,95.437,540.761,538.672,0.0
50186.0,STARLINK-3274,PAYLOAD,2023-04-14 01:13:31,15.08856112,0.0001241,53.2157,340.5108,96.375,263.7383,0.00036582,5.541e-05,0.0,0 STARLINK-3274,1 50186U 21125AG  23104.05105557  .00005541  00000-0  36582-3 0  9991,2 50186  53.2157 340.5108 0001241  96.3750 263.7383 15.08856112 76332,6917.831,95.437,540.555,538.838,0.0
50186.0,STARLINK-3274,PAYLOAD,2023-04-14 15:31:59,15.08843473,0.0001554,53.2165,337.8354,85.9418,274.1752,4.2012e-05,3.81e-06,0.0,0 STARLINK-3274,1 50186U 21125AG  23104.64721940  .00000381  00000-0  42012-4 0  9999,2 50186  53.2165 337.8354 0001554  85.9418 274.1752 15.08843473 75943,6917.87,95.437,540.81,538.66,0.0
50186.0,STARLINK-3274,PAYLOAD,2023-04-15 01:04:18,15.08845968,0.000137,53.2163,336.0508,82.7973,277.3175,0.00018462,2.652e-05,0.0,0 STARLINK-3274,1 50186U 21125AG  23105.04465904  .00002652  00000-0  18462-3 0  9993,2 50186  53.2163 336.0508 0001370  82.7973 277.3175 15.08845968 76485,6917.862,95.437,540.675,538.779,0.0
50186.0,STARLINK-3274,PAYLOAD,2023-04-15 21:44:19,15.08847492,0.0001125,53.2165,332.1849,89.2758,270.8363,0.00019526,2.822e-05,0.0,0 STARLINK-3274,1 50186U 21125AG  23105.90577823  .00002822  00000-0  19526-3 0  9993,2 50186  53.2165 332.1849 0001125  89.2758 270.8363 15.08847492 76619,6917.857,95.437,540.501,538.944,0.0
50186.0,STARLINK-3274,PAYLOAD,2023-04-16 00:55:05,15.08849517,0.0001185,53.2169,331.5897,89.3531,270.7597,0.00041193,6.276e-05,0.0,0 STARLINK-3274,1 50186U 21125AG  23106.03825859  .00006276  00000-0  41193-3 0  9995,2 50186  53.2169 331.5897 0001185  89.3531 270.7597 15.08849517 76635,6917.851,95.437,540.536,538.897,0.0
50186.0,STARLINK-3274,PAYLOAD,2023-04-16 19:59:43,15.08838673,0.000115,53.2161,328.0217,74.3579,285.754,0.00011986,1.62e-05,0.0,0 STARLINK-3274,1 50186U 21125AG  23106.83314516  .00001620  00000-0  11986-3 0  9991,2 50186  53.2161 328.0217 0001150  74.3579 285.7540 15.08838673 76750,6917.884,95.438,540.545,538.954,0.0
